FENGYUN 1C DEB          
1 37471U 99025EJR 17339.84204517  .00001048  00000-0  13970-3 0  9997
2 37471  98.7337 197.5285 0195475 152.5289 208.6414 14.69739738398913
